KUIPER-00053            
1 64513U 25134P   25225.31791456  .00027136  00000+0  74762-3 0  9993
2 64513  51.8772  85.3857 0001825 262.6200  97.4579 15.36936938  9060
KUIPER-00054            
1 64514U 25134Q   25225.32472462  .00032834  00000+0  90617-3 0  9996
2 64514  51.8753  85.4273 0002533 282.0556  78.0147 15.36782694  9064
KUIPER-00055            
1 64515U 25134R   25224.91323384  .00016282  00000+0  44682-3 0  9999
2 64515  51.8759  87.1789 0000754 210.4103 149.6840 15.37395782  9006
KUIPER-00056            
1 64516U 25134S   25225.33227898  .00033633  00000+0  93511-3 0  9994
2 64516  51.8746  85.4717 0003107 284.5853  75.4789 15.36539557  9067
KUIPER-00057            
1 64517U 25134T   25224.84421910  .00036084  00000+0  10603-2 0  9994
2 64517  51.8702  88.1760 0006782 290.8452  69.1807 15.34756581  8634
KUIPER-00058            
1 64518U 25134U   25225.34307682  .00039258  00000+0  10981-2 0  9995
2 64518  51.8726  85.5339 0004769 292.7531  67.2951 15.36272063  9063
KUIPER-00059            
1 64519U 25134V   25225.30599551  .00037726  00000+0  10199-2 0  9999
2 64519  51.8764  85.3063 0001372 242.2684 117.8164 15.37357763  9064
KUIPER-00060            
1 64520U 25134W   25225.57276341  .00029857  00000+0  81409-3 0  9998
2 64520  51.8761  84.0962 0001753 239.6638 120.4176 15.37208503  9092
