<?xml version="1.0" encoding="UTF-8"?>
<ndm xmlns:xsi="http://www.w3.org/2001/XMLSchema-instance" xsi:noNamespaceSchemaLocation="https://sanaregistry.org/r/ndmxml_unqualified/ndmxml-2.0.0-master-2.0.xsd">
<omm id="CCSDS_OMM_VERS" version="2.0">
<header><CREATION_DATE/><ORIGINATOR/></header><body><segment><metadata><OBJECT_NAME>KUIPER-00053</OBJECT_NAME><OBJECT_ID>2025-134P</OBJECT_ID><CENTER_NAME>EARTH</CENTER_NAME><REF_FRAME>TEME</REF_FRAME><TIME_SYSTEM>UTC</TIME_SYSTEM><MEAN_ELEMENT_THEORY>SGP4</MEAN_ELEMENT_THEORY></metadata><data><meanElements><EPOCH>2025-08-13T07:37:47.817984</EPOCH><MEAN_MOTION>15.36936938</MEAN_MOTION><ECCENTRICITY>.0001825</ECCENTRICITY><INCLINATION>51.8772</INCLINATION><RA_OF_ASC_NODE>85.3857</RA_OF_ASC_NODE><ARG_OF_PERICENTER>262.6200</ARG_OF_PERICENTER><MEAN_ANOMALY>97.4579</MEAN_ANOMALY></meanElements><tleParameters><EPHEMERIS_TYPE>0</EPHEMERIS_TYPE><CLASSIFICATION_TYPE>U</CLASSIFICATION_TYPE><NORAD_CAT_ID>64513</NORAD_CAT_ID><ELEMENT_SET_NO>999</ELEMENT_SET_NO><REV_AT_EPOCH>906</REV_AT_EPOCH><BSTAR>.74762E-3</BSTAR><MEAN_MOTION_DOT>.27136E-3</MEAN_MOTION_DOT><MEAN_MOTION_DDOT>0</MEAN_MOTION_DDOT></tleParameters></data></segment></body></omm>
<omm id="CCSDS_OMM_VERS" version="2.0">
<header><CREATION_DATE/><ORIGINATOR/></header><body><segment><metadata><OBJECT_NAME>KUIPER-00054</OBJECT_NAME><OBJECT_ID>2025-134Q</OBJECT_ID><CENTER_NAME>EARTH</CENTER_NAME><REF_FRAME>TEME</REF_FRAME><TIME_SYSTEM>UTC</TIME_SYSTEM><MEAN_ELEMENT_THEORY>SGP4</MEAN_ELEMENT_THEORY></metadata><data><meanElements><EPOCH>2025-08-13T07:47:36.207168</EPOCH><MEAN_MOTION>15.36782694</MEAN_MOTION><ECCENTRICITY>.0002533</ECCENTRICITY><INCLINATION>51.8753</INCLINATION><RA_OF_ASC_NODE>85.4273</RA_OF_ASC_NODE><ARG_OF_PERICENTER>282.0556</ARG_OF_PERICENTER><MEAN_ANOMALY>78.0147</MEAN_ANOMALY></meanElements><tleParameters><EPHEMERIS_TYPE>0</EPHEMERIS_TYPE><CLASSIFICATION_TYPE>U</CLASSIFICATION_TYPE><NORAD_CAT_ID>64514</NORAD_CAT_ID><ELEMENT_SET_NO>999</ELEMENT_SET_NO><REV_AT_EPOCH>906</REV_AT_EPOCH><BSTAR>.90617E-3</BSTAR><MEAN_MOTION_DOT>.32834E-3</MEAN_MOTION_DOT><MEAN_MOTION_DDOT>0</MEAN_MOTION_DDOT></tleParameters></data></segment></body></omm>
<omm id="CCSDS_OMM_VERS" version="2.0">
<header><CREATION_DATE/><ORIGINATOR/></header><body><segment><metadata><OBJECT_NAME>KUIPER-00055</OBJECT_NAME><OBJECT_ID>2025-134R</OBJECT_ID><CENTER_NAME>EARTH</CENTER_NAME><REF_FRAME>TEME</REF_FRAME><TIME_SYSTEM>UTC</TIME_SYSTEM><MEAN_ELEMENT_THEORY>SGP4</MEAN_ELEMENT_THEORY></metadata><data><meanElements><EPOCH>2025-08-12T21:55:03.403776</EPOCH><MEAN_MOTION>15.37395782</MEAN_MOTION><ECCENTRICITY>.0000754</ECCENTRICITY><INCLINATION>51.8759</INCLINATION><RA_OF_ASC_NODE>87.1789</RA_OF_ASC_NODE><ARG_OF_PERICENTER>210.4103</ARG_OF_PERICENTER><MEAN_ANOMALY>149.6840</MEAN_ANOMALY></meanElements><tleParameters><EPHEMERIS_TYPE>0</EPHEMERIS_TYPE><CLASSIFICATION_TYPE>U</CLASSIFICATION_TYPE><NORAD_CAT_ID>64515</NORAD_CAT_ID><ELEMENT_SET_NO>999</ELEMENT_SET_NO><REV_AT_EPOCH>900</REV_AT_EPOCH><BSTAR>.44682E-3</BSTAR><MEAN_MOTION_DOT>.16282E-3</MEAN_MOTION_DOT><MEAN_MOTION_DDOT>0</MEAN_MOTION_DDOT></tleParameters></data></segment></body></omm>
<omm id="CCSDS_OMM_VERS" version="2.0">
<header><CREATION_DATE/><ORIGINATOR/></header><body><segment><metadata><OBJECT_NAME>KUIPER-00056</OBJECT_NAME><OBJECT_ID>2025-134S</OBJECT_ID><CENTER_NAME>EARTH</CENTER_NAME><REF_FRAME>TEME</REF_FRAME><TIME_SYSTEM>UTC</TIME_SYSTEM><MEAN_ELEMENT_THEORY>SGP4</MEAN_ELEMENT_THEORY></metadata><data><meanElements><EPOCH>2025-08-13T07:58:28.903872</EPOCH><MEAN_MOTION>15.36539557</MEAN_MOTION><ECCENTRICITY>.0003107</ECCENTRICITY><INCLINATION>51.8746</INCLINATION><RA_OF_ASC_NODE>85.4717</RA_OF_ASC_NODE><ARG_OF_PERICENTER>284.5853</ARG_OF_PERICENTER><MEAN_ANOMALY>75.4789</MEAN_ANOMALY></meanElements><tleParameters><EPHEMERIS_TYPE>0</EPHEMERIS_TYPE><CLASSIFICATION_TYPE>U</CLASSIFICATION_TYPE><NORAD_CAT_ID>64516</NORAD_CAT_ID><ELEMENT_SET_NO>999</ELEMENT_SET_NO><REV_AT_EPOCH>906</REV_AT_EPOCH><BSTAR>.93511E-3</BSTAR><MEAN_MOTION_DOT>.33633E-3</MEAN_MOTION_DOT><MEAN_MOTION_DDOT>0</MEAN_MOTION_DDOT></tleParameters></data></segment></body></omm>
<omm id="CCSDS_OMM_VERS" version="2.0">
<header><CREATION_DATE/><ORIGINATOR/></header><body><segment><metadata><OBJECT_NAME>KUIPER-00057</OBJECT_NAME><OBJECT_ID>2025-134T</OBJECT_ID><CENTER_NAME>EARTH</CENTER_NAME><REF_FRAME>TEME</REF_FRAME><TIME_SYSTEM>UTC</TIME_SYSTEM><MEAN_ELEMENT_THEORY>SGP4</MEAN_ELEMENT_THEORY></metadata><data><meanElements><EPOCH>2025-08-12T20:15:40.530240</EPOCH><MEAN_MOTION>15.34756581</MEAN_MOTION><ECCENTRICITY>.0006782</ECCENTRICITY><INCLINATION>51.8702</INCLINATION><RA_OF_ASC_NODE>88.1760</RA_OF_ASC_NODE><ARG_OF_PERICENTER>290.8452</ARG_OF_PERICENTER><MEAN_ANOMALY>69.1807</MEAN_ANOMALY></meanElements><tleParameters><EPHEMERIS_TYPE>0</EPHEMERIS_TYPE><CLASSIFICATION_TYPE>U</CLASSIFICATION_TYPE><NORAD_CAT_ID>64517</NORAD_CAT_ID><ELEMENT_SET_NO>999</ELEMENT_SET_NO><REV_AT_EPOCH>863</REV_AT_EPOCH><BSTAR>.10603E-2</BSTAR><MEAN_MOTION_DOT>.36084E-3</MEAN_MOTION_DOT><MEAN_MOTION_DDOT>0</MEAN_MOTION_DDOT></tleParameters></data></segment></body></omm>
<omm id="CCSDS_OMM_VERS" version="2.0">
<header><CREATION_DATE/><ORIGINATOR/></header><body><segment><metadata><OBJECT_NAME>KUIPER-00058</OBJECT_NAME><OBJECT_ID>2025-134U</OBJECT_ID><CENTER_NAME>EARTH</CENTER_NAME><REF_FRAME>TEME</REF_FRAME><TIME_SYSTEM>UTC</TIME_SYSTEM><MEAN_ELEMENT_THEORY>SGP4</MEAN_ELEMENT_THEORY></metadata><data><meanElements><EPOCH>2025-08-13T08:14:01.837248</EPOCH><MEAN_MOTION>15.36272063</MEAN_MOTION><ECCENTRICITY>.0004769</ECCENTRICITY><INCLINATION>51.8726</INCLINATION><RA_OF_ASC_NODE>85.5339</RA_OF_ASC_NODE><ARG_OF_PERICENTER>292.7531</ARG_OF_PERICENTER><MEAN_ANOMALY>67.2951</MEAN_ANOMALY></meanElements><tleParameters><EPHEMERIS_TYPE>0</EPHEMERIS_TYPE><CLASSIFICATION_TYPE>U</CLASSIFICATION_TYPE><NORAD_CAT_ID>64518</NORAD_CAT_ID><ELEMENT_SET_NO>999</ELEMENT_SET_NO><REV_AT_EPOCH>906</REV_AT_EPOCH><BSTAR>.10981E-2</BSTAR><MEAN_MOTION_DOT>.39258E-3</MEAN_MOTION_DOT><MEAN_MOTION_DDOT>0</MEAN_MOTION_DDOT></tleParameters></data></segment></body></omm>
<omm id="CCSDS_OMM_VERS" version="2.0">
<header><CREATION_DATE/><ORIGINATOR/></header><body><segment><metadata><OBJECT_NAME>KUIPER-00059</OBJECT_NAME><OBJECT_ID>2025-134V</OBJECT_ID><CENTER_NAME>EARTH</CENTER_NAME><REF_FRAME>TEME</REF_FRAME><TIME_SYSTEM>UTC</TIME_SYSTEM><MEAN_ELEMENT_THEORY>SGP4</MEAN_ELEMENT_THEORY></metadata><data><meanElements><EPOCH>2025-08-13T07:20:38.012064</EPOCH><MEAN_MOTION>15.37357763</MEAN_MOTION><ECCENTRICITY>.0001372</ECCENTRICITY><INCLINATION>51.8764</INCLINATION><RA_OF_ASC_NODE>85.3063</RA_OF_ASC_NODE><ARG_OF_PERICENTER>242.2684</ARG_OF_PERICENTER><MEAN_ANOMALY>117.8164</MEAN_ANOMALY></meanElements><tleParameters><EPHEMERIS_TYPE>0</EPHEMERIS_TYPE><CLASSIFICATION_TYPE>U</CLASSIFICATION_TYPE><NORAD_CAT_ID>64519</NORAD_CAT_ID><ELEMENT_SET_NO>999</ELEMENT_SET_NO><REV_AT_EPOCH>906</REV_AT_EPOCH><BSTAR>.10199E-2</BSTAR><MEAN_MOTION_DOT>.37726E-3</MEAN_MOTION_DOT><MEAN_MOTION_DDOT>0</MEAN_MOTION_DDOT></tleParameters></data></segment></body></omm>
<omm id="CCSDS_OMM_VERS" version="2.0">
<header><CREATION_DATE/><ORIGINATOR/></header><body><segment><metadata><OBJECT_NAME>KUIPER-00060</OBJECT_NAME><OBJECT_ID>2025-134W</OBJECT_ID><CENTER_NAME>EARTH</CENTER_NAME><REF_FRAME>TEME</REF_FRAME><TIME_SYSTEM>UTC</TIME_SYSTEM><MEAN_ELEMENT_THEORY>SGP4</MEAN_ELEMENT_THEORY></metadata><data><meanElements><EPOCH>2025-08-13T13:44:46.758624</EPOCH><MEAN_MOTION>15.37208503</MEAN_MOTION><ECCENTRICITY>.0001753</ECCENTRICITY><INCLINATION>51.8761</INCLINATION><RA_OF_ASC_NODE>84.0962</RA_OF_ASC_NODE><ARG_OF_PERICENTER>239.6638</ARG_OF_PERICENTER><MEAN_ANOMALY>120.4176</MEAN_ANOMALY></meanElements><tleParameters><EPHEMERIS_TYPE>0</EPHEMERIS_TYPE><CLASSIFICATION_TYPE>U</CLASSIFICATION_TYPE><NORAD_CAT_ID>64520</NORAD_CAT_ID><ELEMENT_SET_NO>999</ELEMENT_SET_NO><REV_AT_EPOCH>909</REV_AT_EPOCH><BSTAR>.81409E-3</BSTAR><MEAN_MOTION_DOT>.29857E-3</MEAN_MOTION_DOT><MEAN_MOTION_DDOT>0</MEAN_MOTION_DDOT></tleParameters></data></segment></body></omm>

</ndm>
